0 PSLV DEB
1 35342U 01049QA  13276.80357997  .00000386  00000-0  21015-3 0  2350
2 35342 098.2407 274.4519 0375889 223.1782 133.9277 13.86604784465471
0 PSLV DEB
1 35342U 01049QA  13282.79294354  .00000373  00000-0  20152-3 0  2360
2 35342 098.2412 279.7489 0378530 206.3668 151.8106 13.86609787466304
0 PSLV DEB
1 35342U 01049QA  13290.80282851  .00000394  00000-0  21011-3 0  2379
2 35342 098.2408 286.8287 0380061 184.2702 175.6001 13.86617868467419
